[{"OBJECT_NAME":"STARLINK-6266","OBJECT_ID":"2023-065AR","EPOCH":"2026-03-09T10:04:09.762816","MEAN_MOTION":15.02537405,"ECCENTRICITY":0.00013015,"INCLINATION":43.0026,"RA_OF_ASC_NODE":224.8651,"ARG_OF_PERICENTER":262.1452,"MEAN_ANOMALY":97.9242,"EPHEMERIS_TYPE":0,"CLASSIFICATION_TYPE":"U","NORAD_CAT_ID":56542,"ELEMENT_SET_NO":999,"REV_AT_EPOCH":15643,"BSTAR":-3.174188e-6,"MEAN_MOTION_DOT":-2.46e-6,"MEAN_MOTION_DDOT":0},{"OBJECT_NAME":"OBJECT G","OBJECT_ID":"2025-292G","EPOCH":"2026-03-09T22:41:34.708704","MEAN_MOTION":15.05879657,"ECCENTRICITY":0.00150455,"INCLINATION":97.6425,"RA_OF_ASC_NODE":145.7524,"ARG_OF_PERICENTER":352.95,"MEAN_ANOMALY":7.1513,"EPHEMERIS_TYPE":0,"CLASSIFICATION_TYPE":"U","NORAD_CAT_ID":66999,"ELEMENT_SET_NO":999,"REV_AT_EPOCH":1351,"BSTAR":0.00047153864,"MEAN_MOTION_DOT":6.807e-5,"MEAN_MOTION_DDOT":0}]
